CCSDS_OMM_VERS = 2.0
CREATION_DATE  = 
ORIGINATOR     = 

OBJECT_NAME    = CZ-2C R/B
OBJECT_ID      = 2022-132E
CENTER_NAME    = EARTH
REF_FRAME      = TEME
TIME_SYSTEM    = UTC
MEAN_ELEMENT_THEORY = SGP/SGP4

EPOCH          = 2026-01-03T11:29:27.201984
MEAN_MOTION    = 15.56376271
ECCENTRICITY   = .00189
INCLINATION    = 97.2935
RA_OF_ASC_NODE = 5.1155
ARG_OF_PERICENTER = 340.4469
MEAN_ANOMALY   = 19.6059

EPHEMERIS_TYPE = 0
CLASSIFICATION_TYPE = U
NORAD_CAT_ID   = 54039
ELEMENT_SET_NO = 999
REV_AT_EPOCH   = 18021
BSTAR          = .80234E-3
MEAN_MOTION_DOT = .57237E-3
MEAN_MOTION_DDOT = 0

CCSDS_OMM_VERS = 2.0
CREATION_DATE  = 
ORIGINATOR     = 

OBJECT_NAME    = GSLV R/B
OBJECT_ID      = 2022-138AN
CENTER_NAME    = EARTH
REF_FRAME      = TEME
TIME_SYSTEM    = UTC
MEAN_ELEMENT_THEORY = SGP/SGP4

EPOCH          = 2026-01-03T11:00:14.660928
MEAN_MOTION    = 14.96272112
ECCENTRICITY   = .0023068
INCLINATION    = 87.3820
RA_OF_ASC_NODE = 188.1993
ARG_OF_PERICENTER = 33.9332
MEAN_ANOMALY   = 326.3370

EPHEMERIS_TYPE = 0
CLASSIFICATION_TYPE = U
NORAD_CAT_ID   = 54149
ELEMENT_SET_NO = 999
REV_AT_EPOCH   = 17417
BSTAR          = .48765E-3
MEAN_MOTION_DOT = .5562E-4
MEAN_MOTION_DDOT = 0

CCSDS_OMM_VERS = 2.0
CREATION_DATE  = 
ORIGINATOR     = 

OBJECT_NAME    = XRISM
OBJECT_ID      = 2023-137A
CENTER_NAME    = EARTH
REF_FRAME      = TEME
TIME_SYSTEM    = UTC
MEAN_ELEMENT_THEORY = SGP/SGP4

EPOCH          = 2026-01-03T05:52:54.860160
MEAN_MOTION    = 15.10626697
ECCENTRICITY   = .0007646
INCLINATION    = 31.0035
RA_OF_ASC_NODE = 346.6748
ARG_OF_PERICENTER = 103.7447
MEAN_ANOMALY   = 256.4042

EPHEMERIS_TYPE = 0
CLASSIFICATION_TYPE = U
NORAD_CAT_ID   = 57800
ELEMENT_SET_NO = 999
REV_AT_EPOCH   = 12788
BSTAR          = .67505E-3
MEAN_MOTION_DOT = .11547E-3
MEAN_MOTION_DDOT = 0

CCSDS_OMM_VERS = 2.0
CREATION_DATE  = 
ORIGINATOR     = 

OBJECT_NAME    = ACS3
OBJECT_ID      = 2024-077B
CENTER_NAME    = EARTH
REF_FRAME      = TEME
TIME_SYSTEM    = UTC
MEAN_ELEMENT_THEORY = SGP/SGP4

EPOCH          = 2026-01-03T11:35:28.106880
MEAN_MOTION    = 13.86708892
ECCENTRICITY   = .0068947
INCLINATION    = 97.2520
RA_OF_ASC_NODE = 319.2298
ARG_OF_PERICENTER = 284.0093
MEAN_ANOMALY   = 75.3410

EPHEMERIS_TYPE = 0
CLASSIFICATION_TYPE = U
NORAD_CAT_ID   = 59588
ELEMENT_SET_NO = 999
REV_AT_EPOCH   = 8515
BSTAR          = .3211E-1
MEAN_MOTION_DOT = .38247E-3
MEAN_MOTION_DDOT = 0

CCSDS_OMM_VERS = 2.0
CREATION_DATE  = 
ORIGINATOR     = 

OBJECT_NAME    = SZ-21 MODULE
OBJECT_ID      = 2025-246C
CENTER_NAME    = EARTH
REF_FRAME      = TEME
TIME_SYSTEM    = UTC
MEAN_ELEMENT_THEORY = SGP/SGP4

EPOCH          = 2026-01-03T00:10:39.879264
MEAN_MOTION    = 15.63793066
ECCENTRICITY   = .00023233
INCLINATION    = 41.4755
RA_OF_ASC_NODE = 246.1963
ARG_OF_PERICENTER = 25.4667
MEAN_ANOMALY   = 334.6288

EPHEMERIS_TYPE = 0
CLASSIFICATION_TYPE = U
NORAD_CAT_ID   = 66515
ELEMENT_SET_NO = 999
REV_AT_EPOCH   = 777
BSTAR          = .42307771E-3
MEAN_MOTION_DOT = .40642E-3
MEAN_MOTION_DDOT = 0

