CZ-2C R/B               
1 54039U 22132E   26003.47878706  .00057237  00000+0  80234-3 0  9992
2 54039  97.2935   5.1155 0018900 340.4469  19.6059 15.56376271180218
GSLV R/B                
1 54149U 22138AN  26003.45850302  .00005562  00000+0  48765-3 0  9997
2 54149  87.3820 188.1993 0023068  33.9332 326.3370 14.96272112174173
XRISM                   
1 57800U 23137A   26003.24507940  .00011547  00000+0  67505-3 0  9991
2 57800  31.0035 346.6748 0007646 103.7447 256.4042 15.10626697127883
ACS3                    
1 59588U 24077B   26003.48296420  .00038247  00000+0  32110-1 0  9992
2 59588  97.2520 319.2298 0068947 284.0093  75.3410 13.86708892 85157
SZ-21 MODULE            
1 66515U 25246C   26003.00740601  .00040642  00000+0  42308-3 0  9996
2 66515  41.4755 246.1963 0002323  25.4667 334.6288 15.63793066  7773
